[{"OBJECT_NAME":"STARLINK-34832","OBJECT_ID":"2025-195T","EPOCH":"2026-03-09T19:59:33.447264","MEAN_MOTION":15.30188082,"ECCENTRICITY":9.429e-5,"INCLINATION":53.1585,"RA_OF_ASC_NODE":257.6585,"ARG_OF_PERICENTER":102.5697,"MEAN_ANOMALY":257.5409,"EPHEMERIS_TYPE":0,"CLASSIFICATION_TYPE":"U","NORAD_CAT_ID":65475,"ELEMENT_SET_NO":999,"REV_AT_EPOCH":2999,"BSTAR":0.00084603722,"MEAN_MOTION_DOT":0.00024772,"MEAN_MOTION_DDOT":0},{"OBJECT_NAME":"GLOBAL-34","OBJECT_ID":"2026-043A","EPOCH":"2026-03-09T11:23:30.999840","MEAN_MOTION":15.31488019,"ECCENTRICITY":0.00068849,"INCLINATION":42.0215,"RA_OF_ASC_NODE":76.7399,"ARG_OF_PERICENTER":289.2632,"MEAN_ANOMALY":70.746,"EPHEMERIS_TYPE":0,"CLASSIFICATION_TYPE":"U","NORAD_CAT_ID":68098,"ELEMENT_SET_NO":999,"REV_AT_EPOCH":53,"BSTAR":0.00045822046,"MEAN_MOTION_DOT":0.00014018,"MEAN_MOTION_DDOT":0}]
